{
  "type": "FeatureCollection",
  "features": [
    {
      "type": "Feature",
      "properties": {
        "norad_id": 66659,
        "name": "JACK K",
        "group": "last-30-days",
        "lat": -82.0954058414863,
        "lon": 23.375891655517083,
        "alt_km": 588.4406077801841,
        "timestamp": "2025-12-20T16:47:35.022600+00:00",
        "meta_object_name": "JACK K",
        "meta_object_id": "2025-274K",
        "meta_epoch": "2025-12-19T09:01:45.234336",
        "meta_mean_motion": 14.92845388,
        "meta_eccentricity": 0.001198,
        "meta_inclination": 97.7401,
        "meta_ra_of_asc_node": 280.481,
        "meta_arg_of_pericenter": 255.6276,
        "meta_mean_anomaly": 104.3614,
        "meta_ephemeris_type": 0,
        "meta_classification_type": "U",
        "meta_norad_cat_id": 66659,
        "meta_element_set_no": 999,
        "meta_rev_at_epoch": 339,
        "meta_bstar": 0.00014908,
        "meta_mean_motion_dot": 1.489e-05,
        "meta_mean_motion_ddot": 0,
        "tle_line1": "1 66659U 25274K   25353.37621799  .00001489  00000+0  14908-3 0  9990",
        "tle_line2": "2 66659  97.7401 280.4810 0011980 255.6276 104.3614 14.92845388  3393"
      },
      "geometry": {
        "type": "Point",
        "coordinates": [
          23.375891655517083,
          -82.0954058414863
        ]
      }
    },
    {
      "type": "Feature",
      "properties": {
        "norad_id": 66660,
        "name": "K-HERO",
        "group": "last-30-days",
        "lat": -76.26377406656874,
        "lon": -44.400126554962945,
        "alt_km": 588.2854926426126,
        "timestamp": "2025-12-20T16:47:35.022610+00:00",
        "meta_object_name": "K-HERO",
        "meta_object_id": "2025-274L",
        "meta_epoch": "2025-12-20T09:06:07.173216",
        "meta_mean_motion": 14.92999765,
        "meta_eccentricity": 0.0012624,
        "meta_inclination": 97.7407,
        "meta_ra_of_asc_node": 281.4738,
        "meta_arg_of_pericenter": 252.6789,
        "meta_mean_anomaly": 107.305,
        "meta_ephemeris_type": 0,
        "meta_classification_type": "U",
        "meta_norad_cat_id": 66660,
        "meta_element_set_no": 999,
        "meta_rev_at_epoch": 354,
        "meta_bstar": 0.0001323,
        "meta_mean_motion_dot": 1.32e-05,
        "meta_mean_motion_ddot": 0,
        "tle_line1": "1 66660U 25274L   25354.37924969  .00001320  00000+0  13230-3 0  9999",
        "tle_line2": "2 66660  97.7407 281.4738 0012624 252.6789 107.3050 14.92999765  3546"
      },
      "geometry": {
        "type": "Point",
        "coordinates": [
          -44.400126554962945,
          -76.26377406656874
        ]
      }
    },
    {
      "type": "Feature",
      "properties": {
        "norad_id": 66661,
        "name": "SNUGLITE-III",
        "group": "last-30-days",
        "lat": -64.97973430876613,
        "lon": -61.263097907737674,
        "alt_km": 588.4384948478837,
        "timestamp": "2025-12-20T16:47:35.022619+00:00",
        "meta_object_name": "SNUGLITE-III",
        "meta_object_id": "2025-274M",
        "meta_epoch": "2025-12-20T09:02:48.732288",
        "meta_mean_motion": 14.93134742,
        "meta_eccentricity": 0.0013237,
        "meta_inclination": 97.7406,
        "meta_ra_of_asc_node": 281.476,
        "meta_arg_of_pericenter": 253.9546,
        "meta_mean_anomaly": 106.0216,
        "meta_ephemeris_type": 0,
        "meta_classification_type": "U",
        "meta_norad_cat_id": 66661,
        "meta_element_set_no": 999,
        "meta_rev_at_epoch": 354,
        "meta_bstar": 0.00012621,
        "meta_mean_motion_dot": 1.261e-05,
        "meta_mean_motion_ddot": 0,
        "tle_line1": "1 66661U 25274M   25354.37695292  .00001261  00000+0  12621-3 0  9991",
        "tle_line2": "2 66661  97.7406 281.4760 0013237 253.9546 106.0216 14.93134742  3544"
      },
      "geometry": {
        "type": "Point",
        "coordinates": [
          -61.263097907737674,
          -64.97973430876613
        ]
      }
    },
    {
      "type": "Feature",
      "properties": {
        "norad_id": 66662,
        "name": "2025-274N",
        "group": "last-30-days",
        "lat": -60.282462365929945,
        "lon": -64.41789380209573,
        "alt_km": 588.5648550419874,
        "timestamp": "2025-12-20T16:47:35.022630+00:00",
        "meta_object_name": "2025-274N",
        "meta_object_id": "2025-274N",
        "meta_epoch": "2025-12-20T09:01:30.694080",
        "meta_mean_motion": 14.93189751,
        "meta_eccentricity": 0.0013656,
        "meta_inclination": 97.7406,
        "meta_ra_of_asc_node": 281.4775,
        "meta_arg_of_pericenter": 253.7281,
        "meta_mean_anomaly": 106.2436,
        "meta_ephemeris_type": 0,
        "meta_classification_type": "U",
        "meta_norad_cat_id": 66662,
        "meta_element_set_no": 999,
        "meta_rev_at_epoch": 354,
        "meta_bstar": 0.00013606,
        "meta_mean_motion_dot": 1.366e-05,
        "meta_mean_motion_ddot": 0,
        "tle_line1": "1 66662U 25274N   25354.37604970  .00001366  00000+0  13606-3 0  9995",
        "tle_line2": "2 66662  97.7406 281.4775 0013656 253.7281 106.2436 14.93189751  3546"
      },
      "geometry": {
        "type": "Point",
        "coordinates": [
          -64.41789380209573,
          -60.282462365929945
        ]
      }
    },
    {
      "type": "Feature",
      "properties": {
        "norad_id": 66663,
        "name": "KSLV-II R/B",
        "group": "last-30-days",
        "lat": -57.560629624310586,
        "lon": -65.66829338644719,
        "alt_km": 542.944901051238,
        "timestamp": "2025-12-20T16:47:35.022668+00:00",
        "meta_object_name": "KSLV-II R/B",
        "meta_object_id": "2025-274P",
        "meta_epoch": "2025-12-19T21:48:24.651360",
        "meta_mean_motion": 14.97453325,
        "meta_eccentricity": 0.0056754,
        "meta_inclination": 97.7442,
        "meta_ra_of_asc_node": 281.1844,
        "meta_arg_of_pericenter": 294.3607,
        "meta_mean_anomaly": 65.1697,
        "meta_ephemeris_type": 0,
        "meta_classification_type": "U",
        "meta_norad_cat_id": 66663,
        "meta_element_set_no": 999,
        "meta_rev_at_epoch": 348,
        "meta_bstar": 0.0010967,
        "meta_mean_motion_dot": 0.0001315,
        "meta_mean_motion_ddot": 0,
        "tle_line1": "1 66663U 25274P   25353.90861865  .00013150  00000+0  10967-2 0  9992",
        "tle_line2": "2 66663  97.7442 281.1844 0056754 294.3607  65.1697 14.97453325  3480"
      },
      "geometry": {
        "type": "Point",
        "coordinates": [
          -65.66829338644719,
          -57.560629624310586
        ]
      }
    },
    {
      "type": "Feature",
      "properties": {
        "norad_id": 66664,
        "name": "SOYUZ-MS 28",
        "group": "last-30-days",
        "lat": -3.2926051244586203,
        "lon": -74.32865689049888,
        "alt_km": 418.90718101145103,
        "timestamp": "2025-12-20T16:47:35.022683+00:00",
        "meta_object_name": "SOYUZ-MS 28",
        "meta_object_id": "2025-275A",
        "meta_epoch": "2025-12-20T06:42:56.229408",
        "meta_mean_motion": 15.4968092,
        "meta_eccentricity": 0.0003193,
        "meta_inclination": 51.632,
        "meta_ra_of_asc_node": 105.1395,
        "meta_arg_of_pericenter": 275.4219,
        "meta_mean_anomaly": 84.6406,
        "meta_ephemeris_type": 0,
        "meta_classification_type": "U",
        "meta_norad_cat_id": 66664,
        "meta_element_set_no": 999,
        "meta_rev_at_epoch": 361,
        "meta_bstar": 0.00013442,
        "meta_mean_motion_dot": 7.139e-05,
        "meta_mean_motion_ddot": 0,
        "tle_line1": "1 66664U 25275A   25354.27981747  .00007139  00000+0  13442-3 0  9999",
        "tle_line2": "2 66664  51.6320 105.1395 0003193 275.4219  84.6406 15.49680920  3619"
      },
      "geometry": {
        "type": "Point",
        "coordinates": [
          -74.32865689049888,
          -3.2926051244586203
        ]
      }
    },
    {
      "type": "Feature",
      "properties": {
        "norad_id": 66666,
        "name": "TRANSPORTER-15 A",
        "group": "last-30-days",
        "lat": 7.344508309759528,
        "lon": 65.53388768740683,
        "alt_km": 570.4065185874515,
        "timestamp": "2025-12-20T16:47:35.022693+00:00",
        "meta_object_name": "TRANSPORTER-15 A",
        "meta_object_id": "2025-276A",
        "meta_epoch": "2025-12-20T03:57:17.729856",
        "meta_mean_motion": 15.00328968,
        "meta_eccentricity": 0.00036632,
        "meta_inclination": 97.6583,
        "meta_ra_of_asc_node": 66.001,
        "meta_arg_of_pericenter": 201.3958,
        "meta_mean_anomaly": 158.7113,
        "meta_ephemeris_type": 0,
        "meta_classification_type": "U",
        "meta_norad_cat_id": 66666,
        "meta_element_set_no": 999,
        "meta_rev_at_epoch": 320,
        "meta_bstar": 0.00026516383,
        "meta_mean_motion_dot": 3.267e-05,
        "meta_mean_motion_ddot": 0,
        "tle_line1": "1 66666U 25276A   25354.16478854  .00003267  00000+0  26516-3 0  9994",
        "tle_line2": "2 66666  97.6583  66.0010 0003663 201.3958 158.7113 15.00328968  3202"
      },
      "geometry": {
        "type": "Point",
        "coordinates": [
          65.53388768740683,
          7.344508309759528
        ]
      }
    }
  ]
}